[{"OBJECT_NAME":"STARLINK-3247","OBJECT_ID":"2021-115Z","EPOCH":"2026-03-09T10:27:44.033184","MEAN_MOTION":15.08838881,"ECCENTRICITY":0.00014683,"INCLINATION":53.2179,"RA_OF_ASC_NODE":150.2605,"ARG_OF_PERICENTER":97.1271,"MEAN_ANOMALY":262.9888,"EPHEMERIS_TYPE":0,"CLASSIFICATION_TYPE":"U","NORAD_CAT_ID":49747,"ELEMENT_SET_NO":999,"REV_AT_EPOCH":23549,"BSTAR":-6.0352922e-5,"MEAN_MOTION_DOT":-1.248e-5,"MEAN_MOTION_DDOT":0},{"OBJECT_NAME":"OBJECT G","OBJECT_ID":"2024-205G","EPOCH":"2026-03-09T23:05:54.449664","MEAN_MOTION":15.09392775,"ECCENTRICITY":0.00211709,"INCLINATION":97.4199,"RA_OF_ASC_NODE":141.9686,"ARG_OF_PERICENTER":130.0324,"MEAN_ANOMALY":230.2768,"EPHEMERIS_TYPE":0,"CLASSIFICATION_TYPE":"U","NORAD_CAT_ID":61900,"ELEMENT_SET_NO":999,"REV_AT_EPOCH":7318,"BSTAR":0.00059967322,"MEAN_MOTION_DOT":9.576e-5,"MEAN_MOTION_DDOT":0}]
